{"type": "FeatureCollection", "features": [{"type": "Feature", "properties": {"norad_id": 25590, "name": "COSMOS 2361", "group": "musson", "lat": 60.571688211913596, "lon": -9.9600076746001, "alt_km": 1004.3885502122475, "timestamp": "2025-12-21T20:41:08.231622+00:00", "meta": {"OBJECT_NAME": "COSMOS 2361", "OBJECT_ID": "1998-076A", "EPOCH": "2025-12-21T12:14:07.609056", "MEAN_MOTION": 13.73218488, "ECCENTRICITY": 0.00301997, "INCLINATION": 82.9341, "RA_OF_ASC_NODE": 337.5995, "ARG_OF_PERICENTER": 240.1953, "MEAN_ANOMALY": 241.617, "EPHEMERIS_TYPE": 0, "CLASSIFICATION_TYPE": "U", "NORAD_CAT_ID": 25590, "ELEMENT_SET_NO": 999, "REV_AT_EPOCH": 35231, "BSTAR": 3.8356272e-05, "MEAN_MOTION_DOT": 5e-07, "MEAN_MOTION_DDOT": 0}, "tle": {"line1": "1 25590U 98076A   25355.50981029  .00000050  00000+0  38356-4 0  9998", "line2": "2 25590  82.9341 337.5995 0030199 240.1953 241.6170 13.73218488352317"}}, "geometry": {"type": "Point", "coordinates": [-9.9600076746001, 60.571688211913596]}}, {"type": "Feature", "properties": {"norad_id": 26818, "name": "COSMOS 2378", "group": "musson", "lat": 15.496089314831469, "lon": 170.98781378667002, "alt_km": 961.9853558848781, "timestamp": "2025-12-21T20:41:08.231641+00:00", "meta": {"OBJECT_NAME": "COSMOS 2378", "OBJECT_ID": "2001-023A", "EPOCH": "2025-12-21T11:40:53.662080", "MEAN_MOTION": 13.74142657, "ECCENTRICITY": 0.0032939, "INCLINATION": 82.927, "RA_OF_ASC_NODE": 353.2385, "ARG_OF_PERICENTER": 180.3149, "MEAN_ANOMALY": 289.174, "EPHEMERIS_TYPE": 0, "CLASSIFICATION_TYPE": "U", "NORAD_CAT_ID": 26818, "ELEMENT_SET_NO": 999, "REV_AT_EPOCH": 23043, "BSTAR": 2.4373324e-05, "MEAN_MOTION_DOT": 3.8e-07, "MEAN_MOTION_DDOT": 0}, "tle": {"line1": "1 26818U 01023A   25355.48673220  .00000038  00000+0  24373-4 0  9996", "line2": "2 26818  82.9270 353.2385 0032939 180.3149 289.1740 13.74142657230439"}}, "geometry": {"type": "Point", "coordinates": [170.98781378667002, 15.496089314831469]}}, {"type": "Feature", "properties": {"norad_id": 27436, "name": "COSMOS 2389", "group": "musson", "lat": 44.07175390052408, "lon": -52.888492178903874, "alt_km": 942.9601955686076, "timestamp": "2025-12-21T20:41:08.231652+00:00", "meta": {"OBJECT_NAME": "COSMOS 2389", "OBJECT_ID": "2002-026A", "EPOCH": "2025-12-21T05:18:49.493952", "MEAN_MOTION": 13.75155469, "ECCENTRICITY": 0.0047292, "INCLINATION": 82.951, "RA_OF_ASC_NODE": 300.7059, "ARG_OF_PERICENTER": 37.6336, "MEAN_ANOMALY": 77.8383, "EPHEMERIS_TYPE": 0, "CLASSIFICATION_TYPE": "U", "NORAD_CAT_ID": 27436, "ELEMENT_SET_NO": 999, "REV_AT_EPOCH": 18265, "BSTAR": 3.7349e-05, "MEAN_MOTION_DOT": 5.1e-07, "MEAN_MOTION_DDOT": 0}, "tle": {"line1": "1 27436U 02026A   25355.22140618  .00000051  00000+0  37349-4 0  9991", "line2": "2 27436  82.9510 300.7059 0047292  37.6336  77.8383 13.75155469182659"}}, "geometry": {"type": "Point", "coordinates": [-52.888492178903874, 44.07175390052408]}}, {"type": "Feature", "properties": {"norad_id": 27818, "name": "COSMOS 2398", "group": "musson", "lat": -82.06723274158877, "lon": 148.6318073846985, "alt_km": 1022.5082596588309, "timestamp": "2025-12-21T20:41:08.231663+00:00", "meta": {"OBJECT_NAME": "COSMOS 2398", "OBJECT_ID": "2003-023A", "EPOCH": "2025-12-21T13:14:03.083712", "MEAN_MOTION": 13.72386565, "ECCENTRICITY": 0.00327187, "INCLINATION": 82.9484, "RA_OF_ASC_NODE": 266.2051, "ARG_OF_PERICENTER": 88.3185, "MEAN_ANOMALY": 84.9577, "EPHEMERIS_TYPE": 0, "CLASSIFICATION_TYPE": "U", "NORAD_CAT_ID": 27818, "ELEMENT_SET_NO": 999, "REV_AT_EPOCH": 12937, "BSTAR": 5.8714195e-05, "MEAN_MOTION_DOT": 6.9e-07, "MEAN_MOTION_DDOT": 0}, "tle": {"line1": "1 27818U 03023A   25355.55142458  .00000069  00000+0  58714-4 0  9991", "line2": "2 27818  82.9484 266.2051 0032718  88.3185  84.9577 13.72386565129377"}}, "geometry": {"type": "Point", "coordinates": [148.6318073846985, -82.06723274158877]}}, {"type": "Feature", "properties": {"norad_id": 28380, "name": "COSMOS 2407", "group": "musson", "lat": -50.28559838999434, "lon": 34.69418089468559, "alt_km": 1011.3194089542421, "timestamp": "2025-12-21T20:41:08.231673+00:00", "meta": {"OBJECT_NAME": "COSMOS 2407", "OBJECT_ID": "2004-028A", "EPOCH": "2025-12-21T14:24:34.609248", "MEAN_MOTION": 13.76314649, "ECCENTRICITY": 0.00399211, "INCLINATION": 82.9597, "RA_OF_ASC_NODE": 206.3322, "ARG_OF_PERICENTER": 30.6809, "MEAN_ANOMALY": 345.284, "EPHEMERIS_TYPE": 0, "CLASSIFICATION_TYPE": "U", "NORAD_CAT_ID": 28380, "ELEMENT_SET_NO": 999, "REV_AT_EPOCH": 7545, "BSTAR": 4.7774096e-05, "MEAN_MOTION_DOT": 6.2e-07, "MEAN_MOTION_DDOT": 0}, "tle": {"line1": "1 28380U 04028A   25355.60040057  .00000062  00000+0  47774-4 0  9997", "line2": "2 28380  82.9597 206.3322 0039921  30.6809 345.2840 13.76314649 75452"}}, "geometry": {"type": "Point", "coordinates": [34.69418089468559, -50.28559838999434]}}, {"type": "Feature", "properties": {"norad_id": 28521, "name": "COSMOS 2414", "group": "musson", "lat": 24.94651420716622, "lon": -5.538743824539384, "alt_km": 912.154738954544, "timestamp": "2025-12-21T20:41:08.231683+00:00", "meta": {"OBJECT_NAME": "COSMOS 2414", "OBJECT_ID": "2005-002A", "EPOCH": "2025-12-21T13:01:30.405792", "MEAN_MOTION": 13.87904154, "ECCENTRICITY": 0.00413129, "INCLINATION": 82.9488, "RA_OF_ASC_NODE": 178.0032, "ARG_OF_PERICENTER": 115.2303, "MEAN_ANOMALY": 245.3152, "EPHEMERIS_TYPE": 0, "CLASSIFICATION_TYPE": "U", "NORAD_CAT_ID": 28521, "ELEMENT_SET_NO": 999, "REV_AT_EPOCH": 5917, "BSTAR": 4.6392264e-05, "MEAN_MOTION_DOT": 7.2e-07, "MEAN_MOTION_DDOT": 0}, "tle": {"line1": "1 28521U 05002A   25355.54271303  .00000072  00000+0  46392-4 0  9996", "line2": "2 28521  82.9488 178.0032 0041312 115.2303 245.3152 13.87904154 59172"}}, "geometry": {"type": "Point", "coordinates": [-5.538743824539384, 24.94651420716622]}}, {"type": "Feature", "properties": {"norad_id": 32052, "name": "COSMOS 2429", "group": "musson", "lat": -49.45815695159123, "lon": 164.86544250582622, "alt_km": 1010.7094080305269, "timestamp": "2025-12-21T20:41:08.231695+00:00", "meta": {"OBJECT_NAME": "COSMOS 2429", "OBJECT_ID": "2007-038A", "EPOCH": "2025-12-21T10:50:20.529600", "MEAN_MOTION": 13.7515024, "ECCENTRICITY": 0.00387423, "INCLINATION": 82.9806, "RA_OF_ASC_NODE": 336.8861, "ARG_OF_PERICENTER": 13.9449, "MEAN_ANOMALY": 346.2768, "EPHEMERIS_TYPE": 0, "CLASSIFICATION_TYPE": "U", "NORAD_CAT_ID": 32052, "ELEMENT_SET_NO": 999, "REV_AT_EPOCH": 91722, "BSTAR": 3.5701696e-05, "MEAN_MOTION_DOT": 5e-07, "MEAN_MOTION_DDOT": 0}, "tle": {"line1": "1 32052U 07038A   25355.45162650  .00000050  00000+0  35702-4 0  9994", "line2": "2 32052  82.9806 336.8861 0038742  13.9449 346.2768 13.75150240917221"}}, "geometry": {"type": "Point", "coordinates": [164.86544250582622, -49.45815695159123]}}, {"type": "Feature", "properties": {"norad_id": 35635, "name": "COSMOS 2454", "group": "musson", "lat": -82.8921153579685, "lon": 79.17169302489827, "alt_km": 947.2603637351522, "timestamp": "2025-12-21T20:41:08.231711+00:00", "meta": {"OBJECT_NAME": "COSMOS 2454", "OBJECT_ID": "2009-039A", "EPOCH": "2025-12-21T12:45:18.930240", "MEAN_MOTION": 13.8992965, "ECCENTRICITY": 0.00201793, "INCLINATION": 82.9557, "RA_OF_ASC_NODE": 161.9803, "ARG_OF_PERICENTER": 50.1646, "MEAN_ANOMALY": 8.4587, "EPHEMERIS_TYPE": 0, "CLASSIFICATION_TYPE": "U", "NORAD_CAT_ID": 35635, "ELEMENT_SET_NO": 999, "REV_AT_EPOCH": 83272, "BSTAR": 3.079993e-05, "MEAN_MOTION_DOT": 5.4e-07, "MEAN_MOTION_DDOT": 0}, "tle": {"line1": "1 35635U 09039A   25355.53146910  .00000054  00000+0  30800-4 0  9995", "line2": "2 35635  82.9557 161.9803 0020179  50.1646   8.4587 13.89929650832725"}}, "geometry": {"type": "Point", "coordinates": [79.17169302489827, -82.8921153579685]}}, {"type": "Feature", "properties": {"norad_id": 36519, "name": "COSMOS 2463", "group": "musson", "lat": 70.56427646134256, "lon": 40.50683295343024, "alt_km": 1012.0784391014467, "timestamp": "2025-12-21T20:41:08.231724+00:00", "meta": {"OBJECT_NAME": "COSMOS 2463", "OBJECT_ID": "2010-017A", "EPOCH": "2025-12-21T12:08:15.115200", "MEAN_MOTION": 13.71649866, "ECCENTRICITY": 0.00347568, "INCLINATION": 82.9604, "RA_OF_ASC_NODE": 20.2705, "ARG_OF_PERICENTER": 262.8286, "MEAN_ANOMALY": 211.2151, "EPHEMERIS_TYPE": 0, "CLASSIFICATION_TYPE": "U", "NORAD_CAT_ID": 36519, "ELEMENT_SET_NO": 999, "REV_AT_EPOCH": 78357, "BSTAR": 4.0001614e-05, "MEAN_MOTION_DOT": 5.1e-07, "MEAN_MOTION_DDOT": 0}, "tle": {"line1": "1 36519U 10017A   25355.50573050  .00000051  00000+0  40002-4 0  9993", "line2": "2 36519  82.9604  20.2705 0034756 262.8286 211.2151 13.71649866783574"}}, "geometry": {"type": "Point", "coordinates": [40.50683295343024, 70.56427646134256]}}]}